{
    "links": {
        "self": "http://www.neowsapp.com/rest/v1/neo/3770145?api_key=iIulBulltgU6a56xZRHN4H3l9WmuAYTsLGpBGhQ2"
    },
    "id": "3770145",
    "neo_reference_id": "3770145",
    "name": "(2017 DW37)",
    "designation": "2017 DW37",
    "nasa_jpl_url": "http://ssd.jpl.nasa.gov/sbdb.cgi?sstr=3770145",
    "absolute_magnitude_h": 23.5,
    "estimated_diameter": {
        "kilometers": {
            "estimated_diameter_min": 0.0530340723,
            "estimated_diameter_max": 0.1185877909
        },
        "meters": {
            "estimated_diameter_min": 53.0340723319,
            "estimated_diameter_max": 118.5877908577
        },
        "miles": {
            "estimated_diameter_min": 0.0329538346,
            "estimated_diameter_max": 0.0736870142
        },
        "feet": {
            "estimated_diameter_min": 173.9963058693,
            "estimated_diameter_max": 389.0675677576
        }
    },
    "is_potentially_hazardous_asteroid": false,
    "close_approach_data": [
        {
            "close_approach_date": "2017-03-03",
            "close_approach_date_full": "2017-Mar-03 01:44",
            "epoch_date_close_approach": 1488505440000,
            "relative_velocity": {
                "kilometers_per_second": "18.0271328245",
                "kilometers_per_hour": "64897.678168375",
                "miles_per_hour": "40324.8934152328"
            },
            "miss_distance": {
                "astronomical": "0.0892380034",
                "lunar": "34.7135833226",
                "kilometers": "13349815.231692758",
                "miles": "8295190.5318777404"
            },
            "orbiting_body": "Earth"
        }
    ],
    "orbital_data": {
        "orbit_id": "4",
        "orbit_determination_date": "2017-04-06 08:19:55",
        "first_observation_date": "2017-02-25",
        "last_observation_date": "2017-03-04",
        "data_arc_in_days": 7,
        "observations_used": 44,
        "orbit_uncertainty": "9",
        "minimum_orbit_intersection": ".0651684",
        "jupiter_tisserand_invariant": "3.103",
        "epoch_osculation": "2457810.5",
        "eccentricity": ".6195096224731073",
        "semi_major_axis": "2.429766889296821",
        "inclination": "26.28670794579476",
        "ascending_node_longitude": "154.5062979261444",
        "orbital_period": "1383.392259213356",
        "perihelion_distance": ".9245029210108912",
        "perihelion_argument": "50.25275281129839",
        "aphelion_distance": "3.93503085758275",
        "perihelion_time": "2457850.432484534051",
        "mean_anomaly": "349.6083743880185",
        "mean_motion": ".260229878837625",
        "equinox": "J2000",
        "orbit_class": {
            "orbit_class_type": "APO",
            "orbit_class_description": "Near-Earth asteroid orbits which cross the Earth’s orbit similar to that of 1862 Apollo",
            "orbit_class_range": "a (semi-major axis) > 1.0 AU; q (perihelion) < 1.017 AU"
        }
    },
    "is_sentry_object": false
}